{"spkid": "50127408", "covariance": {"epoch": "2455073.5", "labels": ["e", "q", "tp", "node", "peri", "i"], "elements": [{"label": "e", "value": ".4651972995221166", "title": "eccentricity", "units": null, "sigma": 2.05149709388314e-08, "name": "e"}, {"label": "q", "units": "au", "value": "1.045358199578488", "title": "perihelion distance", "name": "q", "sigma": 4.01351850462609e-08}, {"label": "tp", "units": "TDB", "title": "time of perihelion passage", "value": "2455425.476321140302", "name": "tp", "sigma": 6.65269778894632e-05}, {"sigma": 9.06194089956743e-06, "name": "om", "title": "longitude of the ascending node", "value": "77.0632765658418", "units": "deg", "label": "node"}, {"label": "peri", "sigma": 7.07117413865769e-05, "name": "w", "units": "deg", "title": "argument of perihelion", "value": "174.0557796192502"}, {"title": "inclination", "value": "24.5051456577733", "units": "deg", "sigma": 2.94087414853668e-05, "name": "i", "label": "i"}], "data": [["4.208640326210955E-16", "-8.221988041925403E-16", "-2.885897765436678E-13", "5.935555886967521E-15", "-3.571670889840927E-13", "-2.763486637513662E-14"], ["-8.221988041925403E-16", "1.610833078697603E-15", "6.014641285612346E-13", "-1.177879605629299E-14", "7.181706266113936E-13", "4.072891107195445E-14"], ["-2.885897765436678E-13", "6.014641285612346E-13", "4.425838787105126E-9", "1.763700989151779E-10", "4.633170968422824E-9", "-4.744060194316948E-10"], ["5.935555886967521E-15", "-1.177879605629299E-14", "1.763700989151779E-10", "8.21187728672529E-11", "1.235654824769935E-10", "-1.783966520026461E-10"], ["-3.571670889840927E-13", "7.181706266113936E-13", "4.633170968422824E-9", "1.235654824769935E-10", "5.00015036992214E-9", "-3.048282235350974E-10"], ["-2.763486637513662E-14", "4.072891107195445E-14", "-4.744060194316948E-10", "-1.783966520026461E-10", "-3.048282235350974E-10", "8.648740757531353E-10"]]}, "elements": [{"label": "e", "units": null, "title": "eccentricity", "value": ".4650502068441632", "sigma": "2.1505E-8", "name": "e"}, {"label": "a", "units": "au", "value": "1.954603958584443", "title": "semi-major axis", "name": "a", "sigma": "5.0848E-9"}, {"sigma": "4.2761E-8", "name": "q", "units": "au", "title": "perihelion distance", "value": "1.045614983346328", "label": "q"}, {"label": "i", "name": "i", "sigma": "2.9447E-5", "units": "deg", "title": "inclination; angle with respect to x-y ecliptic plane", "value": "24.51005745545815"}, {"label": "node", "name": "om", "sigma": "9.0498E-6", "value": "76.94341507273329", "title": "longitude of the ascending node", "units": "deg"}, {"value": "174.1989539949898", "title": "argument of perihelion", "units": "deg", "name": "w", "sigma": "7.0696E-5", "label": "peri"}, {"label": "M", "name": "ma", "sigma": "2.8245E-5", "units": "deg", "title": "mean anomaly", "value": "284.12468699498"}, {"label": "tp", "sigma": "7.9052E-5", "name": "tp", "title": "time of perihelion passage", "value": "2461410.870375798933", "units": "TDB"}, {"title": "sidereal orbital period", "value": "998.1288022179937", "units": "d", "sigma": "3.8949E-6", "name": "per", "label": "period"}, {"title": "mean motion", "value": ".3606748940617938", "units": "deg/d", "sigma": "1.4074E-9", "name": "n", "label": "n"}, {"label": "Q", "name": "ad", "sigma": "7.4495E-9", "units": "au", "value": "2.863592933822559", "title": "aphelion distance"}], "epoch": "2461200.5"}